<?xml version='1.0' encoding='UTF-8'?>
<gpx version="1.1" creator="https://www.komoot.de" xmlns="http://www.topografix.com/GPX/1/1" xmlns:xsi="http://www.w3.org/2001/XMLSchema-instance" xsi:schemaLocation="http://www.topografix.com/GPX/1/1 http://www.topografix.com/GPX/1/1/gpx.xsd">
  <metadata>
    <name>Wanderung2_14KM</name>
    <author>
      <link href="https://www.komoot.de">
        <text>komoot</text>
        <type>text/html</type>
      </link>
    </author>
  </metadata>
  <trk>
    <name>Wanderung2_14KM</name>
    <trkseg>
      <trkpt lat="48.357691" lon="8.733955">
        <ele>563.355170</ele>
        <time>2025-05-11T15:04:26.118Z</time>
      </trkpt>
      <trkpt lat="48.357657" lon="8.734314">
        <ele>563.355170</ele>
        <time>2025-05-11T15:04:51.983Z</time>
      </trkpt>
      <trkpt lat="48.357655" lon="8.734334">
        <ele>563.355170</ele>
        <time>2025-05-11T15:04:53.400Z</time>
      </trkpt>
      <trkpt lat="48.357647" lon="8.734475">
        <ele>563.355170</ele>
        <time>2025-05-11T15:05:03.244Z</time>
      </trkpt>
      <trkpt lat="48.357454" lon="8.734460">
        <ele>563.355170</ele>
        <time>2025-05-11T15:05:23.239Z</time>
      </trkpt>
      <trkpt lat="48.357332" lon="8.734384">
        <ele>563.355170</ele>
        <time>2025-05-11T15:05:36.803Z</time>
      </trkpt>
      <trkpt lat="48.357360" lon="8.734114">
        <ele>563.355170</ele>
        <time>2025-05-11T15:05:55.276Z</time>
      </trkpt>
      <trkpt lat="48.357240" lon="8.734093">
        <ele>563.396195</ele>
        <time>2025-05-11T15:06:07.603Z</time>
      </trkpt>
      <trkpt lat="48.357240" lon="8.733727">
        <ele>563.526117</ele>
        <time>2025-05-11T15:06:32.134Z</time>
      </trkpt>
      <trkpt lat="48.357276" lon="8.733616">
        <ele>563.569962</ele>
        <time>2025-05-11T15:06:40.344Z</time>
      </trkpt>
      <trkpt lat="48.357483" lon="8.733642">
        <ele>563.680929</ele>
        <time>2025-05-11T15:07:01.473Z</time>
      </trkpt>
      <trkpt lat="48.357610" lon="8.733257">
        <ele>563.833509</ele>
        <time>2025-05-11T15:07:31.225Z</time>
      </trkpt>
      <trkpt lat="48.357795" lon="8.732937">
        <ele>563.984076</ele>
        <time>2025-05-11T15:08:00.936Z</time>
      </trkpt>
      <trkpt lat="48.357994" lon="8.732574">
        <ele>564.151124</ele>
        <time>2025-05-11T15:08:34.725Z</time>
      </trkpt>
      <trkpt lat="48.358236" lon="8.731924">
        <ele>564.289525</ele>
        <time>2025-05-11T15:09:25.573Z</time>
      </trkpt>
      <trkpt lat="48.358218" lon="8.731623">
        <ele>564.260967</ele>
        <time>2025-05-11T15:09:45.898Z</time>
      </trkpt>
      <trkpt lat="48.358104" lon="8.731100">
        <ele>564.208955</ele>
        <time>2025-05-11T15:10:23.125Z</time>
      </trkpt>
      <trkpt lat="48.357911" lon="8.730367">
        <ele>564.134449</ele>
        <time>2025-05-11T15:11:17.101Z</time>
      </trkpt>
      <trkpt lat="48.357818" lon="8.730149">
        <ele>564.109969</ele>
        <time>2025-05-11T15:11:34.646Z</time>
      </trkpt>
      <trkpt lat="48.357637" lon="8.729919">
        <ele>564.076280</ele>
        <time>2025-05-11T15:11:58.425Z</time>
      </trkpt>
      <trkpt lat="48.357442" lon="8.729809">
        <ele>564.437193</ele>
        <time>2025-05-11T15:12:19.946Z</time>
      </trkpt>
      <trkpt lat="48.357046" lon="8.729872">
        <ele>566.009161</ele>
        <time>2025-05-11T15:13:02.561Z</time>
      </trkpt>
      <trkpt lat="48.356577" lon="8.730102">
        <ele>567.956417</ele>
        <time>2025-05-11T15:13:58.071Z</time>
      </trkpt>
      <trkpt lat="48.355096" lon="8.730501">
        <ele>574.555888</ele>
        <time>2025-05-11T15:17:00.273Z</time>
      </trkpt>
      <trkpt lat="48.354942" lon="8.730590">
        <ele>575.364274</ele>
        <time>2025-05-11T15:17:19.924Z</time>
      </trkpt>
      <trkpt lat="48.354761" lon="8.730509">
        <ele>576.289620</ele>
        <time>2025-05-11T15:17:42.164Z</time>
      </trkpt>
      <trkpt lat="48.354673" lon="8.730403">
        <ele>576.841980</ele>
        <time>2025-05-11T15:17:55.335Z</time>
      </trkpt>
      <trkpt lat="48.354656" lon="8.729444">
        <ele>579.965930</ele>
        <time>2025-05-11T15:19:07.762Z</time>
      </trkpt>
      <trkpt lat="48.354697" lon="8.726393">
        <ele>585.303344</ele>
        <time>2025-05-11T15:22:48.897Z</time>
      </trkpt>
      <trkpt lat="48.352833" lon="8.726056">
        <ele>588.934538</ele>
        <time>2025-05-11T15:26:11.814Z</time>
      </trkpt>
      <trkpt lat="48.351788" lon="8.724778">
        <ele>589.605712</ele>
        <time>2025-05-11T15:28:26.977Z</time>
      </trkpt>
      <trkpt lat="48.351763" lon="8.724660">
        <ele>589.646735</ele>
        <time>2025-05-11T15:28:35.279Z</time>
      </trkpt>
      <trkpt lat="48.351646" lon="8.723877">
        <ele>589.938997</ele>
        <time>2025-05-11T15:29:29.159Z</time>
      </trkpt>
      <trkpt lat="48.351486" lon="8.723706">
        <ele>590.047854</ele>
        <time>2025-05-11T15:29:48.820Z</time>
      </trkpt>
      <trkpt lat="48.351229" lon="8.723088">
        <ele>590.316590</ele>
        <time>2025-05-11T15:30:38.072Z</time>
      </trkpt>
      <trkpt lat="48.350887" lon="8.722950">
        <ele>590.512994</ele>
        <time>2025-05-11T15:31:14.450Z</time>
      </trkpt>
      <trkpt lat="48.350619" lon="8.722804">
        <ele>590.671093</ele>
        <time>2025-05-11T15:31:44.054Z</time>
      </trkpt>
      <trkpt lat="48.350356" lon="8.722332">
        <ele>592.078163</ele>
        <time>2025-05-11T15:32:27.688Z</time>
      </trkpt>
      <trkpt lat="48.349706" lon="8.721113">
        <ele>595.715597</ele>
        <time>2025-05-11T15:34:25.840Z</time>
      </trkpt>
      <trkpt lat="48.349136" lon="8.719800">
        <ele>599.561779</ele>
        <time>2025-05-11T15:36:27.988Z</time>
      </trkpt>
      <trkpt lat="48.349022" lon="8.719397">
        <ele>600.664775</ele>
        <time>2025-05-11T15:37:01.497Z</time>
      </trkpt>
      <trkpt lat="48.348680" lon="8.718659">
        <ele>602.930519</ele>
        <time>2025-05-11T15:38:08.093Z</time>
      </trkpt>
      <trkpt lat="48.348103" lon="8.717569">
        <ele>605.079999</ele>
        <time>2025-05-11T15:39:48.112Z</time>
      </trkpt>
      <trkpt lat="48.347493" lon="8.716170">
        <ele>607.135372</ele>
        <time>2025-05-11T15:41:45.370Z</time>
      </trkpt>
      <trkpt lat="48.347340" lon="8.715572">
        <ele>608.075755</ele>
        <time>2025-05-11T15:42:29.744Z</time>
      </trkpt>
      <trkpt lat="48.347225" lon="8.715122">
        <ele>608.783296</ele>
        <time>2025-05-11T15:43:03.127Z</time>
      </trkpt>
      <trkpt lat="48.347225" lon="8.714522">
        <ele>609.663834</ele>
        <time>2025-05-11T15:43:44.804Z</time>
      </trkpt>
      <trkpt lat="48.346580" lon="8.712960">
        <ele>614.743089</ele>
        <time>2025-05-11T15:46:02.922Z</time>
      </trkpt>
      <trkpt lat="48.346516" lon="8.712541">
        <ele>616.544504</ele>
        <time>2025-05-11T15:46:37.761Z</time>
      </trkpt>
      <trkpt lat="48.346507" lon="8.712483">
        <ele>616.794066</ele>
        <time>2025-05-11T15:46:42.574Z</time>
      </trkpt>
      <trkpt lat="48.346392" lon="8.711449">
        <ele>621.186870</ele>
        <time>2025-05-11T15:48:10.520Z</time>
      </trkpt>
      <trkpt lat="48.346303" lon="8.711055">
        <ele>623.126388</ele>
        <time>2025-05-11T15:48:46.405Z</time>
      </trkpt>
      <trkpt lat="48.345833" lon="8.710332">
        <ele>628.986241</ele>
        <time>2025-05-11T15:50:14.182Z</time>
      </trkpt>
      <trkpt lat="48.345636" lon="8.709396">
        <ele>634.675041</ele>
        <time>2025-05-11T15:51:39.787Z</time>
      </trkpt>
      <trkpt lat="48.345333" lon="8.708551">
        <ele>639.530014</ele>
        <time>2025-05-11T15:53:01.633Z</time>
      </trkpt>
      <trkpt lat="48.345312" lon="8.707871">
        <ele>642.168356</ele>
        <time>2025-05-11T15:53:57.624Z</time>
      </trkpt>
      <trkpt lat="48.345476" lon="8.707024">
        <ele>645.587562</ele>
        <time>2025-05-11T15:55:07.262Z</time>
      </trkpt>
      <trkpt lat="48.345493" lon="8.706432">
        <ele>647.884129</ele>
        <time>2025-05-11T15:55:52.559Z</time>
      </trkpt>
      <trkpt lat="48.345337" lon="8.705430">
        <ele>650.288406</ele>
        <time>2025-05-11T15:57:09.221Z</time>
      </trkpt>
      <trkpt lat="48.345376" lon="8.704689">
        <ele>651.779902</ele>
        <time>2025-05-11T15:58:03.867Z</time>
      </trkpt>
      <trkpt lat="48.345365" lon="8.704377">
        <ele>652.406820</ele>
        <time>2025-05-11T15:58:26.849Z</time>
      </trkpt>
      <trkpt lat="48.343880" lon="8.702609">
        <ele>657.221193</ele>
        <time>2025-05-11T16:01:51.828Z</time>
      </trkpt>
      <trkpt lat="48.343556" lon="8.702331">
        <ele>658.099688</ele>
        <time>2025-05-11T16:02:32.371Z</time>
      </trkpt>
      <trkpt lat="48.342973" lon="8.701910">
        <ele>658.853478</ele>
        <time>2025-05-11T16:03:42.594Z</time>
      </trkpt>
      <trkpt lat="48.342727" lon="8.701355">
        <ele>659.310800</ele>
        <time>2025-05-11T16:04:29.573Z</time>
      </trkpt>
      <trkpt lat="48.342513" lon="8.701139">
        <ele>659.576593</ele>
        <time>2025-05-11T16:04:56.341Z</time>
      </trkpt>
      <trkpt lat="48.342112" lon="8.700871">
        <ele>660.029163</ele>
        <time>2025-05-11T16:05:40.696Z</time>
      </trkpt>
      <trkpt lat="48.341811" lon="8.700670">
        <ele>659.388903</ele>
        <time>2025-05-11T16:06:14.641Z</time>
      </trkpt>
      <trkpt lat="48.341223" lon="8.700183">
        <ele>657.467668</ele>
        <time>2025-05-11T16:07:26.449Z</time>
      </trkpt>
      <trkpt lat="48.341122" lon="8.699937">
        <ele>656.917549</ele>
        <time>2025-05-11T16:07:47.098Z</time>
      </trkpt>
      <trkpt lat="48.341056" lon="8.699659">
        <ele>656.355908</ele>
        <time>2025-05-11T16:08:08.330Z</time>
      </trkpt>
      <trkpt lat="48.340573" lon="8.699862">
        <ele>654.938789</ele>
        <time>2025-05-11T16:09:02.358Z</time>
      </trkpt>
      <trkpt lat="48.339945" lon="8.700188">
        <ele>653.898002</ele>
        <time>2025-05-11T16:10:12.915Z</time>
      </trkpt>
      <trkpt lat="48.338847" lon="8.700551">
        <ele>652.146822</ele>
        <time>2025-05-11T16:12:07.343Z</time>
      </trkpt>
      <trkpt lat="48.338737" lon="8.700709">
        <ele>652.288015</ele>
        <time>2025-05-11T16:12:22.788Z</time>
      </trkpt>
      <trkpt lat="48.338308" lon="8.701244">
        <ele>652.805333</ele>
        <time>2025-05-11T16:13:20.104Z</time>
      </trkpt>
      <trkpt lat="48.337612" lon="8.701947">
        <ele>653.583605</ele>
        <time>2025-05-11T16:14:48.025Z</time>
      </trkpt>
      <trkpt lat="48.337195" lon="8.701965">
        <ele>654.088889</ele>
        <time>2025-05-11T16:15:31.776Z</time>
      </trkpt>
      <trkpt lat="48.336642" lon="8.701707">
        <ele>655.027765</ele>
        <time>2025-05-11T16:16:33.114Z</time>
      </trkpt>
      <trkpt lat="48.336357" lon="8.701415">
        <ele>655.586927</ele>
        <time>2025-05-11T16:17:09.898Z</time>
      </trkpt>
      <trkpt lat="48.336006" lon="8.700411">
        <ele>656.653854</ele>
        <time>2025-05-11T16:18:30.761Z</time>
      </trkpt>
      <trkpt lat="48.335611" lon="8.699383">
        <ele>655.446205</ele>
        <time>2025-05-11T16:19:51.245Z</time>
      </trkpt>
      <trkpt lat="48.335445" lon="8.698951">
        <ele>654.938703</ele>
        <time>2025-05-11T16:20:25.517Z</time>
      </trkpt>
      <trkpt lat="48.334805" lon="8.698145">
        <ele>652.775057</ele>
        <time>2025-05-11T16:21:56.281Z</time>
      </trkpt>
      <trkpt lat="48.333953" lon="8.696807">
        <ele>645.603038</ele>
        <time>2025-05-11T16:24:16.315Z</time>
      </trkpt>
      <trkpt lat="48.333587" lon="8.695949">
        <ele>642.523010</ele>
        <time>2025-05-11T16:25:31.827Z</time>
      </trkpt>
      <trkpt lat="48.333275" lon="8.694999">
        <ele>640.344360</ele>
        <time>2025-05-11T16:26:46.774Z</time>
      </trkpt>
      <trkpt lat="48.332920" lon="8.694147">
        <ele>638.276912</ele>
        <time>2025-05-11T16:27:55.769Z</time>
      </trkpt>
      <trkpt lat="48.332751" lon="8.693680">
        <ele>636.870636</ele>
        <time>2025-05-11T16:28:32.098Z</time>
      </trkpt>
      <trkpt lat="48.332621" lon="8.693551">
        <ele>636.189996</ele>
        <time>2025-05-11T16:28:48.359Z</time>
      </trkpt>
      <trkpt lat="48.332462" lon="8.693652">
        <ele>635.435684</ele>
        <time>2025-05-11T16:29:06.548Z</time>
      </trkpt>
      <trkpt lat="48.332349" lon="8.693899" wait="1800">
        <ele>634.564529</ele>
        <time>2025-05-11T16:29:27.880Z</time>
      </trkpt>
      <trkpt lat="48.332282" lon="8.694285">
        <ele>633.405422</ele>
        <time>2025-05-11T16:29:56.708Z</time>
      </trkpt>
      <trkpt lat="48.331772" lon="8.695988">
        <ele>625.311270</ele>
        <time>2025-05-11T16:32:17.244Z</time>
      </trkpt>
      <trkpt lat="48.331752" lon="8.696174">
        <ele>624.069214</ele>
        <time>2025-05-11T16:32:31.901Z</time>
      </trkpt>
      <trkpt lat="48.331587" lon="8.697490">
        <ele>615.241123</ele>
        <time>2025-05-11T16:34:18.828Z</time>
      </trkpt>
      <trkpt lat="48.330962" lon="8.697825">
        <ele>607.523980</ele>
        <time>2025-05-11T16:35:43.033Z</time>
      </trkpt>
      <trkpt lat="48.330533" lon="8.698684">
        <ele>598.192313</ele>
        <time>2025-05-11T16:37:14.537Z</time>
      </trkpt>
      <trkpt lat="48.330440" lon="8.698714">
        <ele>596.949678</ele>
        <time>2025-05-11T16:37:26.531Z</time>
      </trkpt>
      <trkpt lat="48.330148" lon="8.698170">
        <ele>590.876822</ele>
        <time>2025-05-11T16:38:23.332Z</time>
      </trkpt>
      <trkpt lat="48.329958" lon="8.697541">
        <ele>585.376652</ele>
        <time>2025-05-11T16:39:20.022Z</time>
      </trkpt>
      <trkpt lat="48.329878" lon="8.697198">
        <ele>582.627706</ele>
        <time>2025-05-11T16:39:49.787Z</time>
      </trkpt>
      <trkpt lat="48.329604" lon="8.697335">
        <ele>579.343264</ele>
        <time>2025-05-11T16:40:24.842Z</time>
      </trkpt>
      <trkpt lat="48.329461" lon="8.697567">
        <ele>576.950721</ele>
        <time>2025-05-11T16:40:50.176Z</time>
      </trkpt>
      <trkpt lat="48.329418" lon="8.697712">
        <ele>575.750000</ele>
        <time>2025-05-11T16:41:02.870Z</time>
      </trkpt>
      <trkpt lat="48.329307" lon="8.698082">
        <ele>572.680147</ele>
        <time>2025-05-11T16:41:35.836Z</time>
      </trkpt>
      <trkpt lat="48.329136" lon="8.698554">
        <ele>568.615007</ele>
        <time>2025-05-11T16:42:19.905Z</time>
      </trkpt>
      <trkpt lat="48.329149" lon="8.698598">
        <ele>568.262638</ele>
        <time>2025-05-11T16:42:23.924Z</time>
      </trkpt>
      <trkpt lat="48.329102" lon="8.699241">
        <ele>564.922555</ele>
        <time>2025-05-11T16:43:17.312Z</time>
      </trkpt>
      <trkpt lat="48.329205" lon="8.699773">
        <ele>562.061515</ele>
        <time>2025-05-11T16:44:00.432Z</time>
      </trkpt>
      <trkpt lat="48.329347" lon="8.700254">
        <ele>559.344081</ele>
        <time>2025-05-11T16:44:40.195Z</time>
      </trkpt>
      <trkpt lat="48.329347" lon="8.700829">
        <ele>556.375128</ele>
        <time>2025-05-11T16:45:23.382Z</time>
      </trkpt>
      <trkpt lat="48.329404" lon="8.701601">
        <ele>555.220849</ele>
        <time>2025-05-11T16:46:20.248Z</time>
      </trkpt>
      <trkpt lat="48.329535" lon="8.702237">
        <ele>556.806675</ele>
        <time>2025-05-11T16:47:04.707Z</time>
      </trkpt>
      <trkpt lat="48.329409" lon="8.702212">
        <ele>557.261969</ele>
        <time>2025-05-11T16:47:18.642Z</time>
      </trkpt>
      <trkpt lat="48.329341" lon="8.702008">
        <ele>557.805495</ele>
        <time>2025-05-11T16:47:36.292Z</time>
      </trkpt>
      <trkpt lat="48.329162" lon="8.701880">
        <ele>558.515529</ele>
        <time>2025-05-11T16:48:00.580Z</time>
      </trkpt>
      <trkpt lat="48.328984" lon="8.701628">
        <ele>559.391240</ele>
        <time>2025-05-11T16:48:32.010Z</time>
      </trkpt>
      <trkpt lat="48.328799" lon="8.701434">
        <ele>560.199161</ele>
        <time>2025-05-11T16:49:02.180Z</time>
      </trkpt>
      <trkpt lat="48.328656" lon="8.701209">
        <ele>560.873781</ele>
        <time>2025-05-11T16:49:30.201Z</time>
      </trkpt>
      <trkpt lat="48.328581" lon="8.700866">
        <ele>561.411035</ele>
        <time>2025-05-11T16:50:03.283Z</time>
      </trkpt>
      <trkpt lat="48.328556" lon="8.700641">
        <ele>561.750463</ele>
        <time>2025-05-11T16:50:23.881Z</time>
      </trkpt>
      <trkpt lat="48.328474" lon="8.700480">
        <ele>562.052234</ele>
        <time>2025-05-11T16:50:41.584Z</time>
      </trkpt>
      <trkpt lat="48.328321" lon="8.700431">
        <ele>562.402321</ele>
        <time>2025-05-11T16:51:01.145Z</time>
      </trkpt>
      <trkpt lat="48.328171" lon="8.700480">
        <ele>562.745843</ele>
        <time>2025-05-11T16:51:19.188Z</time>
      </trkpt>
      <trkpt lat="48.328107" lon="8.700662">
        <ele>563.052195</ele>
        <time>2025-05-11T16:51:34.358Z</time>
      </trkpt>
      <trkpt lat="48.328114" lon="8.701091">
        <ele>563.690717</ele>
        <time>2025-05-11T16:52:03.139Z</time>
      </trkpt>
      <trkpt lat="48.328157" lon="8.701547">
        <ele>564.376012</ele>
        <time>2025-05-11T16:52:36.631Z</time>
      </trkpt>
      <trkpt lat="48.328208" lon="8.701842">
        <ele>564.662945</ele>
        <time>2025-05-11T16:53:00.091Z</time>
      </trkpt>
      <trkpt lat="48.328344" lon="8.702633">
        <ele>561.005589</ele>
        <time>2025-05-11T16:54:06.155Z</time>
      </trkpt>
      <trkpt lat="48.328585" lon="8.703838">
        <ele>555.372710</ele>
        <time>2025-05-11T16:55:44.401Z</time>
      </trkpt>
      <trkpt lat="48.328513" lon="8.703988">
        <ele>554.544540</ele>
        <time>2025-05-11T16:55:57.632Z</time>
      </trkpt>
      <trkpt lat="48.328403" lon="8.703966">
        <ele>553.797401</ele>
        <time>2025-05-11T16:56:09.408Z</time>
      </trkpt>
      <trkpt lat="48.328157" lon="8.703183">
        <ele>552.328262</ele>
        <time>2025-05-11T16:57:07.584Z</time>
      </trkpt>
      <trkpt lat="48.327982" lon="8.702969">
        <ele>552.135701</ele>
        <time>2025-05-11T16:57:30.723Z</time>
      </trkpt>
      <trkpt lat="48.327739" lon="8.702888">
        <ele>551.923200</ele>
        <time>2025-05-11T16:57:56.556Z</time>
      </trkpt>
      <trkpt lat="48.327500" lon="8.702926">
        <ele>551.718012</ele>
        <time>2025-05-11T16:58:20.975Z</time>
      </trkpt>
      <trkpt lat="48.327318" lon="8.703038">
        <ele>551.550122</ele>
        <time>2025-05-11T16:58:40.889Z</time>
      </trkpt>
      <trkpt lat="48.327222" lon="8.704026">
        <ele>550.801391</ele>
        <time>2025-05-11T16:59:49.393Z</time>
      </trkpt>
      <trkpt lat="48.327133" lon="8.704417">
        <ele>550.298240</ele>
        <time>2025-05-11T17:00:18.209Z</time>
      </trkpt>
      <trkpt lat="48.326969" lon="8.704943">
        <ele>549.590940</ele>
        <time>2025-05-11T17:00:58.359Z</time>
      </trkpt>
      <trkpt lat="48.326855" lon="8.705147">
        <ele>549.266503</ele>
        <time>2025-05-11T17:01:16.582Z</time>
      </trkpt>
      <trkpt lat="48.326730" lon="8.705265">
        <ele>548.996265</ele>
        <time>2025-05-11T17:01:31.727Z</time>
      </trkpt>
      <trkpt lat="48.326548" lon="8.705291">
        <ele>548.661504</ele>
        <time>2025-05-11T17:01:50.519Z</time>
      </trkpt>
      <trkpt lat="48.326377" lon="8.705442">
        <ele>548.298405</ele>
        <time>2025-05-11T17:02:10.887Z</time>
      </trkpt>
      <trkpt lat="48.326270" lon="8.705635">
        <ele>547.992463</ele>
        <time>2025-05-11T17:02:28.101Z</time>
      </trkpt>
      <trkpt lat="48.326241" lon="8.706214">
        <ele>545.710620</ele>
        <time>2025-05-11T17:03:08.712Z</time>
      </trkpt>
      <trkpt lat="48.326248" lon="8.706729">
        <ele>543.329794</ele>
        <time>2025-05-11T17:03:46.317Z</time>
      </trkpt>
      <trkpt lat="48.326195" lon="8.707148">
        <ele>541.358442</ele>
        <time>2025-05-11T17:04:18.639Z</time>
      </trkpt>
      <trkpt lat="48.326129" lon="8.707439">
        <ele>539.937339</ele>
        <time>2025-05-11T17:04:42.634Z</time>
      </trkpt>
      <trkpt lat="48.326113" lon="8.707512">
        <ele>539.582073</ele>
        <time>2025-05-11T17:04:48.708Z</time>
      </trkpt>
      <trkpt lat="48.326383" lon="8.708301">
        <ele>535.480654</ele>
        <time>2025-05-11T17:05:59.763Z</time>
      </trkpt>
      <trkpt lat="48.326558" lon="8.708532">
        <ele>533.511474</ele>
        <time>2025-05-11T17:06:27.902Z</time>
      </trkpt>
      <trkpt lat="48.327153" lon="8.708982">
        <ele>527.787613</ele>
        <time>2025-05-11T17:07:48.044Z</time>
      </trkpt>
      <trkpt lat="48.327824" lon="8.709712">
        <ele>520.670177</ele>
        <time>2025-05-11T17:09:23.752Z</time>
      </trkpt>
      <trkpt lat="48.327870" lon="8.709851">
        <ele>519.842853</ele>
        <time>2025-05-11T17:09:35.399Z</time>
      </trkpt>
      <trkpt lat="48.327917" lon="8.710147">
        <ele>519.105463</ele>
        <time>2025-05-11T17:09:57.809Z</time>
      </trkpt>
      <trkpt lat="48.327977" lon="8.710881">
        <ele>517.313560</ele>
        <time>2025-05-11T17:10:51.338Z</time>
      </trkpt>
      <trkpt lat="48.328059" lon="8.711203">
        <ele>516.478069</ele>
        <time>2025-05-11T17:11:15.771Z</time>
      </trkpt>
      <trkpt lat="48.328163" lon="8.711472">
        <ele>515.724085</ele>
        <time>2025-05-11T17:11:37.583Z</time>
      </trkpt>
      <trkpt lat="48.328246" lon="8.711596">
        <ele>515.297739</ele>
        <time>2025-05-11T17:11:49.977Z</time>
      </trkpt>
      <trkpt lat="48.328628" lon="8.712412">
        <ele>513.147041</ele>
        <time>2025-05-11T17:12:59.470Z</time>
      </trkpt>
      <trkpt lat="48.328491" lon="8.713085">
        <ele>512.449845</ele>
        <time>2025-05-11T17:13:47.713Z</time>
      </trkpt>
      <trkpt lat="48.328393" lon="8.713807">
        <ele>511.719905</ele>
        <time>2025-05-11T17:14:37.963Z</time>
      </trkpt>
      <trkpt lat="48.328388" lon="8.714190">
        <ele>511.340445</ele>
        <time>2025-05-11T17:15:04.243Z</time>
      </trkpt>
      <trkpt lat="48.328421" lon="8.714560">
        <ele>510.970653</ele>
        <time>2025-05-11T17:15:29.829Z</time>
      </trkpt>
      <trkpt lat="48.328502" lon="8.714920">
        <ele>510.595780</ele>
        <time>2025-05-11T17:15:55.787Z</time>
      </trkpt>
      <trkpt lat="48.328594" lon="8.715103">
        <ele>510.374771</ele>
        <time>2025-05-11T17:16:11.369Z</time>
      </trkpt>
      <trkpt lat="48.328833" lon="8.715901">
        <ele>509.531657</ele>
        <time>2025-05-11T17:17:11.168Z</time>
      </trkpt>
      <trkpt lat="48.329006" lon="8.716345">
        <ele>509.035913</ele>
        <time>2025-05-11T17:17:46.521Z</time>
      </trkpt>
      <trkpt lat="48.329672" lon="8.718055">
        <ele>508.186503</ele>
        <time>2025-05-11T17:20:02.835Z</time>
      </trkpt>
      <trkpt lat="48.330200" lon="8.719513">
        <ele>508.430649</ele>
        <time>2025-05-11T17:21:53.787Z</time>
      </trkpt>
      <trkpt lat="48.330267" lon="8.719792">
        <ele>509.571729</ele>
        <time>2025-05-11T17:22:15.875Z</time>
      </trkpt>
      <trkpt lat="48.330257" lon="8.719000">
        <ele>513.910674</ele>
        <time>2025-05-11T17:23:19.570Z</time>
      </trkpt>
      <trkpt lat="48.330519" lon="8.719143">
        <ele>516.206970</ele>
        <time>2025-05-11T17:23:55.968Z</time>
      </trkpt>
      <trkpt lat="48.330771" lon="8.719196">
        <ele>518.303356</ele>
        <time>2025-05-11T17:24:30.861Z</time>
      </trkpt>
      <trkpt lat="48.331170" lon="8.719386">
        <ele>521.751457</ele>
        <time>2025-05-11T17:25:31.115Z</time>
      </trkpt>
      <trkpt lat="48.331712" lon="8.719299">
        <ele>527.365046</ele>
        <time>2025-05-11T17:26:45.178Z</time>
      </trkpt>
      <trkpt lat="48.331879" lon="8.719300">
        <ele>529.259426</ele>
        <time>2025-05-11T17:27:08.152Z</time>
      </trkpt>
      <trkpt lat="48.331988" lon="8.719332">
        <ele>530.519197</ele>
        <time>2025-05-11T17:27:23.588Z</time>
      </trkpt>
      <trkpt lat="48.332022" lon="8.719502">
        <ele>531.857976</ele>
        <time>2025-05-11T17:27:39.978Z</time>
      </trkpt>
      <trkpt lat="48.332134" lon="8.720206">
        <ele>537.316947</ele>
        <time>2025-05-11T17:28:47.973Z</time>
      </trkpt>
      <trkpt lat="48.332198" lon="8.720238">
        <ele>538.081988</ele>
        <time>2025-05-11T17:28:57.494Z</time>
      </trkpt>
      <trkpt lat="48.332489" lon="8.719132">
        <ele>546.679168</ele>
        <time>2025-05-11T17:30:45.371Z</time>
      </trkpt>
      <trkpt lat="48.332489" lon="8.718994">
        <ele>547.605260</ele>
        <time>2025-05-11T17:30:58.299Z</time>
      </trkpt>
      <trkpt lat="48.332811" lon="8.718946">
        <ele>550.871572</ele>
        <time>2025-05-11T17:31:44.744Z</time>
      </trkpt>
      <trkpt lat="48.333649" lon="8.719190">
        <ele>559.487679</ele>
        <time>2025-05-11T17:33:38.398Z</time>
      </trkpt>
      <trkpt lat="48.334149" lon="8.719280">
        <ele>563.680169</ele>
        <time>2025-05-11T17:34:41.586Z</time>
      </trkpt>
      <trkpt lat="48.334363" lon="8.719319">
        <ele>565.151129</ele>
        <time>2025-05-11T17:35:08.952Z</time>
      </trkpt>
      <trkpt lat="48.334548" lon="8.719390">
        <ele>566.453960</ele>
        <time>2025-05-11T17:35:33.437Z</time>
      </trkpt>
      <trkpt lat="48.334888" lon="8.719593">
        <ele>568.950104</ele>
        <time>2025-05-11T17:36:20.578Z</time>
      </trkpt>
      <trkpt lat="48.335154" lon="8.719531">
        <ele>570.786881</ele>
        <time>2025-05-11T17:36:54.375Z</time>
      </trkpt>
      <trkpt lat="48.335452" lon="8.719522">
        <ele>572.820767</ele>
        <time>2025-05-11T17:37:30.474Z</time>
      </trkpt>
      <trkpt lat="48.335902" lon="8.719419">
        <ele>572.979937</ele>
        <time>2025-05-11T17:38:21.664Z</time>
      </trkpt>
      <trkpt lat="48.336182" lon="8.719551">
        <ele>571.760548</ele>
        <time>2025-05-11T17:38:51.576Z</time>
      </trkpt>
      <trkpt lat="48.336400" lon="8.719596">
        <ele>570.846123</ele>
        <time>2025-05-11T17:39:14.735Z</time>
      </trkpt>
      <trkpt lat="48.336740" lon="8.719600">
        <ele>569.433152</ele>
        <time>2025-05-11T17:39:52.714Z</time>
      </trkpt>
      <trkpt lat="48.337050" lon="8.719644">
        <ele>568.139173</ele>
        <time>2025-05-11T17:40:29.484Z</time>
      </trkpt>
      <trkpt lat="48.337252" lon="8.719772">
        <ele>567.228295</ele>
        <time>2025-05-11T17:40:56.135Z</time>
      </trkpt>
      <trkpt lat="48.337396" lon="8.719927">
        <ele>566.412154</ele>
        <time>2025-05-11T17:41:17.561Z</time>
      </trkpt>
      <trkpt lat="48.337598" lon="8.720380">
        <ele>563.961830</ele>
        <time>2025-05-11T17:42:01.715Z</time>
      </trkpt>
      <trkpt lat="48.337766" lon="8.720581">
        <ele>562.511291</ele>
        <time>2025-05-11T17:42:27.515Z</time>
      </trkpt>
      <trkpt lat="48.338074" lon="8.720622">
        <ele>560.421828</ele>
        <time>2025-05-11T17:43:03.532Z</time>
      </trkpt>
      <trkpt lat="48.338362" lon="8.720735">
        <ele>558.410544</ele>
        <time>2025-05-11T17:43:36.900Z</time>
      </trkpt>
      <trkpt lat="48.338462" lon="8.720632">
        <ele>557.591574</ele>
        <time>2025-05-11T17:43:50.050Z</time>
      </trkpt>
      <trkpt lat="48.338471" lon="8.720311">
        <ele>556.148376</ele>
        <time>2025-05-11T17:44:12.825Z</time>
      </trkpt>
      <trkpt lat="48.338339" lon="8.719788">
        <ele>553.874758</ele>
        <time>2025-05-11T17:44:51.411Z</time>
      </trkpt>
      <trkpt lat="48.338154" lon="8.719268">
        <ele>551.988533</ele>
        <time>2025-05-11T17:45:31.762Z</time>
      </trkpt>
      <trkpt lat="48.338045" lon="8.718567">
        <ele>549.686130</ele>
        <time>2025-05-11T17:46:22.142Z</time>
      </trkpt>
      <trkpt lat="48.338435" lon="8.718158">
        <ele>547.398860</ele>
        <time>2025-05-11T17:47:15.182Z</time>
      </trkpt>
      <trkpt lat="48.338844" lon="8.717843">
        <ele>544.634234</ele>
        <time>2025-05-11T17:48:09.402Z</time>
      </trkpt>
      <trkpt lat="48.339486" lon="8.717581">
        <ele>538.595056</ele>
        <time>2025-05-11T17:49:30.746Z</time>
      </trkpt>
      <trkpt lat="48.339577" lon="8.717576">
        <ele>537.768343</ele>
        <time>2025-05-11T17:49:42.035Z</time>
      </trkpt>
      <trkpt lat="48.339667" lon="8.717572">
        <ele>536.950903</ele>
        <time>2025-05-11T17:49:53.145Z</time>
      </trkpt>
      <trkpt lat="48.339877" lon="8.717656">
        <ele>534.978135</ele>
        <time>2025-05-11T17:50:19.684Z</time>
      </trkpt>
      <trkpt lat="48.340070" lon="8.717835">
        <ele>532.919732</ele>
        <time>2025-05-11T17:50:46.664Z</time>
      </trkpt>
      <trkpt lat="48.340348" lon="8.718218">
        <ele>529.497454</ele>
        <time>2025-05-11T17:51:29.576Z</time>
      </trkpt>
      <trkpt lat="48.340503" lon="8.718381">
        <ele>529.353300</ele>
        <time>2025-05-11T17:51:50.320Z</time>
      </trkpt>
      <trkpt lat="48.340674" lon="8.718452">
        <ele>529.230234</ele>
        <time>2025-05-11T17:52:09.315Z</time>
      </trkpt>
      <trkpt lat="48.340674" lon="8.718360">
        <ele>529.187810</ele>
        <time>2025-05-11T17:52:15.701Z</time>
      </trkpt>
      <trkpt lat="48.340623" lon="8.718197">
        <ele>529.104734</ele>
        <time>2025-05-11T17:52:28.153Z</time>
      </trkpt>
      <trkpt lat="48.340429" lon="8.717793">
        <ele>528.874907</ele>
        <time>2025-05-11T17:53:01.321Z</time>
      </trkpt>
      <trkpt lat="48.339984" lon="8.717055">
        <ele>528.415426</ele>
        <time>2025-05-11T17:54:13.074Z</time>
      </trkpt>
      <trkpt lat="48.339795" lon="8.716875">
        <ele>528.260243</ele>
        <time>2025-05-11T17:54:37.619Z</time>
      </trkpt>
      <trkpt lat="48.339493" lon="8.716841">
        <ele>527.822253</ele>
        <time>2025-05-11T17:55:09.111Z</time>
      </trkpt>
      <trkpt lat="48.339356" lon="8.716729">
        <ele>527.581178</ele>
        <time>2025-05-11T17:55:24.702Z</time>
      </trkpt>
      <trkpt lat="48.339316" lon="8.716557">
        <ele>527.393899</ele>
        <time>2025-05-11T17:55:37.009Z</time>
      </trkpt>
      <trkpt lat="48.339327" lon="8.716437">
        <ele>527.269403</ele>
        <time>2025-05-11T17:55:45.267Z</time>
      </trkpt>
      <trkpt lat="48.339407" lon="8.716368">
        <ele>527.126826</ele>
        <time>2025-05-11T17:55:54.769Z</time>
      </trkpt>
      <trkpt lat="48.339527" lon="8.716360">
        <ele>526.941108</ele>
        <time>2025-05-11T17:56:07.243Z</time>
      </trkpt>
      <trkpt lat="48.339624" lon="8.716403">
        <ele>526.784757</ele>
        <time>2025-05-11T17:56:17.771Z</time>
      </trkpt>
      <trkpt lat="48.339966" lon="8.716326">
        <ele>526.250090</ele>
        <time>2025-05-11T17:56:54.365Z</time>
      </trkpt>
      <trkpt lat="48.340041" lon="8.716334">
        <ele>526.133839</ele>
        <time>2025-05-11T17:57:02.279Z</time>
      </trkpt>
      <trkpt lat="48.340175" lon="8.716209">
        <ele>525.890060</ele>
        <time>2025-05-11T17:57:19.234Z</time>
      </trkpt>
      <trkpt lat="48.340389" lon="8.716060">
        <ele>525.525470</ele>
        <time>2025-05-11T17:57:44.567Z</time>
      </trkpt>
      <trkpt lat="48.340708" lon="8.716017">
        <ele>524.369678</ele>
        <time>2025-05-11T17:58:19.088Z</time>
      </trkpt>
      <trkpt lat="48.340817" lon="8.715957">
        <ele>523.910892</ele>
        <time>2025-05-11T17:58:31.471Z</time>
      </trkpt>
      <trkpt lat="48.340851" lon="8.716017">
        <ele>523.703737</ele>
        <time>2025-05-11T17:58:37.082Z</time>
      </trkpt>
      <trkpt lat="48.340845" lon="8.716094">
        <ele>523.500043</ele>
        <time>2025-05-11T17:58:42.565Z</time>
      </trkpt>
      <trkpt lat="48.340874" lon="8.716145">
        <ele>523.323704</ele>
        <time>2025-05-11T17:58:47.299Z</time>
      </trkpt>
      <trkpt lat="48.342317" lon="8.716497">
        <ele>518.197575</ele>
        <time>2025-05-11T18:01:25.881Z</time>
      </trkpt>
      <trkpt lat="48.342410" lon="8.716604">
        <ele>518.112220</ele>
        <time>2025-05-11T18:01:39.017Z</time>
      </trkpt>
      <trkpt lat="48.342582" lon="8.716887">
        <ele>517.926396</ele>
        <time>2025-05-11T18:02:07.161Z</time>
      </trkpt>
      <trkpt lat="48.342773" lon="8.717572">
        <ele>517.566435</ele>
        <time>2025-05-11T18:02:59.589Z</time>
      </trkpt>
      <trkpt lat="48.342939" lon="8.717866">
        <ele>517.379506</ele>
        <time>2025-05-11T18:03:25.699Z</time>
      </trkpt>
      <trkpt lat="48.343195" lon="8.718193">
        <ele>517.134677</ele>
        <time>2025-05-11T18:04:00.895Z</time>
      </trkpt>
      <trkpt lat="48.343817" lon="8.716226">
        <ele>529.644801</ele>
        <time>2025-05-11T18:07:10.024Z</time>
      </trkpt>
      <trkpt lat="48.344142" lon="8.715667">
        <ele>534.405248</ele>
        <time>2025-05-11T18:08:24.032Z</time>
      </trkpt>
      <trkpt lat="48.344290" lon="8.714446">
        <ele>543.526785</ele>
        <time>2025-05-11T18:10:34.466Z</time>
      </trkpt>
      <trkpt lat="48.344176" lon="8.713451">
        <ele>550.947219</ele>
        <time>2025-05-11T18:12:06.609Z</time>
      </trkpt>
      <trkpt lat="48.344194" lon="8.713032">
        <ele>554.033016</ele>
        <time>2025-05-11T18:12:41.495Z</time>
      </trkpt>
      <trkpt lat="48.344360" lon="8.713332">
        <ele>554.588615</ele>
        <time>2025-05-11T18:13:12.220Z</time>
      </trkpt>
      <trkpt lat="48.344622" lon="8.714017">
        <ele>555.339940</ele>
        <time>2025-05-11T18:14:10.604Z</time>
      </trkpt>
      <trkpt lat="48.344744" lon="8.714274">
        <ele>555.640174</ele>
        <time>2025-05-11T18:14:32.090Z</time>
      </trkpt>
      <trkpt lat="48.344754" lon="8.714336">
        <ele>555.700825</ele>
        <time>2025-05-11T18:14:36.375Z</time>
      </trkpt>
      <trkpt lat="48.344777" lon="8.714480">
        <ele>555.841615</ele>
        <time>2025-05-11T18:14:46.373Z</time>
      </trkpt>
      <trkpt lat="48.344795" lon="8.714858">
        <ele>556.201881</ele>
        <time>2025-05-11T18:15:12.341Z</time>
      </trkpt>
      <trkpt lat="48.344953" lon="8.715149">
        <ele>556.559092</ele>
        <time>2025-05-11T18:15:38.442Z</time>
      </trkpt>
      <trkpt lat="48.345058" lon="8.715273">
        <ele>556.750012</ele>
        <time>2025-05-11T18:15:52.545Z</time>
      </trkpt>
      <trkpt lat="48.345430" lon="8.715466">
        <ele>557.012250</ele>
        <time>2025-05-11T18:16:34.354Z</time>
      </trkpt>
      <trkpt lat="48.345509" lon="8.715748">
        <ele>557.126616</ele>
        <time>2025-05-11T18:16:55.730Z</time>
      </trkpt>
      <trkpt lat="48.345542" lon="8.716099">
        <ele>557.259094</ele>
        <time>2025-05-11T18:17:20.095Z</time>
      </trkpt>
      <trkpt lat="48.345470" lon="8.716283">
        <ele>557.338890</ele>
        <time>2025-05-11T18:17:34.476Z</time>
      </trkpt>
      <trkpt lat="48.345249" lon="8.716638">
        <ele>557.520665</ele>
        <time>2025-05-11T18:18:07.588Z</time>
      </trkpt>
      <trkpt lat="48.345166" lon="8.716824">
        <ele>557.604389</ele>
        <time>2025-05-11T18:18:23.648Z</time>
      </trkpt>
      <trkpt lat="48.345150" lon="8.717084">
        <ele>557.701970</ele>
        <time>2025-05-11T18:18:42.951Z</time>
      </trkpt>
      <trkpt lat="48.345189" lon="8.717275">
        <ele>557.776642</ele>
        <time>2025-05-11T18:18:58.136Z</time>
      </trkpt>
      <trkpt lat="48.345374" lon="8.717665">
        <ele>559.036756</ele>
        <time>2025-05-11T18:19:36.042Z</time>
      </trkpt>
      <trkpt lat="48.345638" lon="8.717955">
        <ele>560.787266</ele>
        <time>2025-05-11T18:20:16.697Z</time>
      </trkpt>
      <trkpt lat="48.345798" lon="8.717999">
        <ele>561.658309</ele>
        <time>2025-05-11T18:20:37.374Z</time>
      </trkpt>
      <trkpt lat="48.346159" lon="8.718003">
        <ele>563.591626</ele>
        <time>2025-05-11T18:21:23.599Z</time>
      </trkpt>
      <trkpt lat="48.347296" lon="8.718772">
        <ele>568.384575</ele>
        <time>2025-05-11T18:23:44.644Z</time>
      </trkpt>
      <trkpt lat="48.347513" lon="8.719211">
        <ele>569.025315</ele>
        <time>2025-05-11T18:24:21.752Z</time>
      </trkpt>
      <trkpt lat="48.347817" lon="8.719919">
        <ele>570.012470</ele>
        <time>2025-05-11T18:25:19.728Z</time>
      </trkpt>
      <trkpt lat="48.348180" lon="8.720377">
        <ele>570.740000</ele>
        <time>2025-05-11T18:26:08.699Z</time>
      </trkpt>
      <trkpt lat="48.348538" lon="8.720693">
        <ele>571.109277</ele>
        <time>2025-05-11T18:26:51.312Z</time>
      </trkpt>
      <trkpt lat="48.348855" lon="8.721039">
        <ele>571.457704</ele>
        <time>2025-05-11T18:27:30.754Z</time>
      </trkpt>
      <trkpt lat="48.348939" lon="8.721210">
        <ele>571.583438</ele>
        <time>2025-05-11T18:27:45.115Z</time>
      </trkpt>
      <trkpt lat="48.349189" lon="8.721720">
        <ele>571.958153</ele>
        <time>2025-05-11T18:28:29.229Z</time>
      </trkpt>
      <trkpt lat="48.349351" lon="8.722307">
        <ele>572.147798</ele>
        <time>2025-05-11T18:29:14.414Z</time>
      </trkpt>
      <trkpt lat="48.349385" lon="8.722734">
        <ele>571.942817</ele>
        <time>2025-05-11T18:29:44.184Z</time>
      </trkpt>
      <trkpt lat="48.349545" lon="8.723115">
        <ele>571.728001</ele>
        <time>2025-05-11T18:30:14.313Z</time>
      </trkpt>
      <trkpt lat="48.349908" lon="8.723580">
        <ele>571.386094</ele>
        <time>2025-05-11T18:31:02.404Z</time>
      </trkpt>
      <trkpt lat="48.350312" lon="8.724348">
        <ele>570.794046</ele>
        <time>2025-05-11T18:32:09.726Z</time>
      </trkpt>
      <trkpt lat="48.350816" lon="8.725642">
        <ele>565.948943</ele>
        <time>2025-05-11T18:34:00.574Z</time>
      </trkpt>
      <trkpt lat="48.351687" lon="8.727760">
        <ele>559.734538</ele>
        <time>2025-05-11T18:37:04.097Z</time>
      </trkpt>
      <trkpt lat="48.351638" lon="8.728004">
        <ele>559.262256</ele>
        <time>2025-05-11T18:37:22.312Z</time>
      </trkpt>
      <trkpt lat="48.351091" lon="8.728506">
        <ele>557.475919</ele>
        <time>2025-05-11T18:38:27.985Z</time>
      </trkpt>
      <trkpt lat="48.351098" lon="8.728585">
        <ele>557.328248</ele>
        <time>2025-05-11T18:38:33.520Z</time>
      </trkpt>
      <trkpt lat="48.351198" lon="8.729731">
        <ele>560.735778</ele>
        <time>2025-05-11T18:39:58.970Z</time>
      </trkpt>
      <trkpt lat="48.351199" lon="8.729987">
        <ele>561.579757</ele>
        <time>2025-05-11T18:40:19.820Z</time>
      </trkpt>
      <trkpt lat="48.351144" lon="8.730133">
        <ele>562.133034</ele>
        <time>2025-05-11T18:40:33.900Z</time>
      </trkpt>
      <trkpt lat="48.350899" lon="8.730421">
        <ele>563.675320</ele>
        <time>2025-05-11T18:41:13.726Z</time>
      </trkpt>
      <trkpt lat="48.350808" lon="8.730612">
        <ele>564.450101</ele>
        <time>2025-05-11T18:41:33.341Z</time>
      </trkpt>
      <trkpt lat="48.350740" lon="8.730822">
        <ele>565.220231</ele>
        <time>2025-05-11T18:41:52.586Z</time>
      </trkpt>
      <trkpt lat="48.350703" lon="8.731048">
        <ele>565.987576</ele>
        <time>2025-05-11T18:42:11.275Z</time>
      </trkpt>
      <trkpt lat="48.350705" lon="8.731347">
        <ele>566.986736</ele>
        <time>2025-05-11T18:42:35.064Z</time>
      </trkpt>
      <trkpt lat="48.350772" lon="8.731623">
        <ele>567.970385</ele>
        <time>2025-05-11T18:42:58.242Z</time>
      </trkpt>
      <trkpt lat="48.350896" lon="8.731881">
        <ele>569.036261</ele>
        <time>2025-05-11T18:43:23.128Z</time>
      </trkpt>
      <trkpt lat="48.351233" lon="8.732343">
        <ele>571.332694</ele>
        <time>2025-05-11T18:44:16.689Z</time>
      </trkpt>
      <trkpt lat="48.351514" lon="8.732565">
        <ele>572.931392</ele>
        <time>2025-05-11T18:44:53.866Z</time>
      </trkpt>
      <trkpt lat="48.351743" lon="8.732650">
        <ele>574.119498</ele>
        <time>2025-05-11T18:45:21.067Z</time>
      </trkpt>
      <trkpt lat="48.352188" lon="8.732735">
        <ele>575.765670</ele>
        <time>2025-05-11T18:46:12.105Z</time>
      </trkpt>
      <trkpt lat="48.352674" lon="8.732784">
        <ele>576.978470</ele>
        <time>2025-05-11T18:47:07.453Z</time>
      </trkpt>
      <trkpt lat="48.353531" lon="8.732521">
        <ele>579.156228</ele>
        <time>2025-05-11T18:48:41.984Z</time>
      </trkpt>
      <trkpt lat="48.353911" lon="8.732240">
        <ele>579.112622</ele>
        <time>2025-05-11T18:49:24.345Z</time>
      </trkpt>
      <trkpt lat="48.354223" lon="8.731846">
        <ele>578.159397</ele>
        <time>2025-05-11T18:50:05.897Z</time>
      </trkpt>
      <trkpt lat="48.354441" lon="8.731501">
        <ele>577.419006</ele>
        <time>2025-05-11T18:50:38.851Z</time>
      </trkpt>
      <trkpt lat="48.354453" lon="8.731473">
        <ele>577.367190</ele>
        <time>2025-05-11T18:50:41.200Z</time>
      </trkpt>
      <trkpt lat="48.354610" lon="8.731138">
        <ele>576.729663</ele>
        <time>2025-05-11T18:51:10.193Z</time>
      </trkpt>
      <trkpt lat="48.354650" lon="8.731002">
        <ele>576.498366</ele>
        <time>2025-05-11T18:51:20.848Z</time>
      </trkpt>
      <trkpt lat="48.354793" lon="8.730759">
        <ele>575.993568</ele>
        <time>2025-05-11T18:51:44.173Z</time>
      </trkpt>
      <trkpt lat="48.354942" lon="8.730590">
        <ele>575.556903</ele>
        <time>2025-05-11T18:52:04.672Z</time>
      </trkpt>
      <trkpt lat="48.355096" lon="8.730501">
        <ele>574.845312</ele>
        <time>2025-05-11T18:52:22.917Z</time>
      </trkpt>
      <trkpt lat="48.356577" lon="8.730102">
        <ele>566.987198</ele>
        <time>2025-05-11T18:55:11.656Z</time>
      </trkpt>
      <trkpt lat="48.357046" lon="8.729872">
        <ele>565.718149</ele>
        <time>2025-05-11T18:56:04.605Z</time>
      </trkpt>
      <trkpt lat="48.357442" lon="8.729809">
        <ele>565.306290</ele>
        <time>2025-05-11T18:56:46.053Z</time>
      </trkpt>
      <trkpt lat="48.357637" lon="8.729919">
        <ele>565.090902</ele>
        <time>2025-05-11T18:57:07.294Z</time>
      </trkpt>
      <trkpt lat="48.357818" lon="8.730149">
        <ele>564.845887</ele>
        <time>2025-05-11T18:57:31.092Z</time>
      </trkpt>
      <trkpt lat="48.357911" lon="8.730367">
        <ele>564.667846</ele>
        <time>2025-05-11T18:57:48.862Z</time>
      </trkpt>
      <trkpt lat="48.358104" lon="8.731100">
        <ele>564.159123</ele>
        <time>2025-05-11T18:58:43.938Z</time>
      </trkpt>
      <trkpt lat="48.358218" lon="8.731623">
        <ele>564.010206</ele>
        <time>2025-05-11T18:59:21.613Z</time>
      </trkpt>
      <trkpt lat="48.358236" lon="8.731924">
        <ele>563.928442</ele>
        <time>2025-05-11T18:59:42.113Z</time>
      </trkpt>
      <trkpt lat="48.357994" lon="8.732574">
        <ele>563.726861</ele>
        <time>2025-05-11T19:00:32.417Z</time>
      </trkpt>
      <trkpt lat="48.357795" lon="8.732937">
        <ele>563.599541</ele>
        <time>2025-05-11T19:01:05.168Z</time>
      </trkpt>
      <trkpt lat="48.357610" lon="8.733257">
        <ele>563.484783</ele>
        <time>2025-05-11T19:01:34.271Z</time>
      </trkpt>
      <trkpt lat="48.357483" lon="8.733642">
        <ele>563.448297</ele>
        <time>2025-05-11T19:02:03.539Z</time>
      </trkpt>
      <trkpt lat="48.357421" lon="8.733634">
        <ele>563.448297</ele>
        <time>2025-05-11T19:02:09.965Z</time>
      </trkpt>
      <trkpt lat="48.357276" lon="8.733616">
        <ele>563.448297</ele>
        <time>2025-05-11T19:02:24.550Z</time>
      </trkpt>
      <trkpt lat="48.357240" lon="8.733727">
        <ele>563.448297</ele>
        <time>2025-05-11T19:02:32.791Z</time>
      </trkpt>
      <trkpt lat="48.357240" lon="8.734093">
        <ele>563.448297</ele>
        <time>2025-05-11T19:02:57.451Z</time>
      </trkpt>
      <trkpt lat="48.357360" lon="8.734114">
        <ele>563.448297</ele>
        <time>2025-05-11T19:03:09.975Z</time>
      </trkpt>
      <trkpt lat="48.357332" lon="8.734384">
        <ele>563.448297</ele>
        <time>2025-05-11T19:03:28.656Z</time>
      </trkpt>
      <trkpt lat="48.357454" lon="8.734460">
        <ele>563.448297</ele>
        <time>2025-05-11T19:03:42.470Z</time>
      </trkpt>
      <trkpt lat="48.357647" lon="8.734475">
        <ele>563.448297</ele>
        <time>2025-05-11T19:04:02.917Z</time>
      </trkpt>
      <trkpt lat="48.357655" lon="8.734334">
        <ele>563.448297</ele>
        <time>2025-05-11T19:04:13.107Z</time>
      </trkpt>
      <trkpt lat="48.357657" lon="8.734314">
        <ele>563.448297</ele>
        <time>2025-05-11T19:04:14.568Z</time>
      </trkpt>
      <trkpt lat="48.357691" lon="8.733955">
        <ele>563.448297</ele>
        <time>2025-05-11T19:04:41.649Z</time>
      </trkpt>
    </trkseg>
  </trk>
</gpx>